[{"OBJECT_NAME":"STARLINK-31196","OBJECT_ID":"2024-019R","EPOCH":"2026-03-09T22:04:18.582528","MEAN_MOTION":15.27578344,"ECCENTRICITY":6.141e-5,"INCLINATION":42.998,"RA_OF_ASC_NODE":247.9598,"ARG_OF_PERICENTER":273.4281,"MEAN_ANOMALY":86.6501,"EPHEMERIS_TYPE":0,"CLASSIFICATION_TYPE":"U","NORAD_CAT_ID":58868,"ELEMENT_SET_NO":999,"REV_AT_EPOCH":11909,"BSTAR":1.7753529e-5,"MEAN_MOTION_DOT":2.27e-6,"MEAN_MOTION_DDOT":0},{"OBJECT_NAME":"D-SAT","OBJECT_ID":"2017-036AF","EPOCH":"2026-03-09T22:00:14.910336","MEAN_MOTION":15.15529522,"ECCENTRICITY":0.00852401,"INCLINATION":97.5487,"RA_OF_ASC_NODE":48.252,"ARG_OF_PERICENTER":144.4633,"MEAN_ANOMALY":216.2319,"EPHEMERIS_TYPE":0,"CLASSIFICATION_TYPE":"U","NORAD_CAT_ID":42794,"ELEMENT_SET_NO":999,"REV_AT_EPOCH":47581,"BSTAR":0.00038655305,"MEAN_MOTION_DOT":7.964e-5,"MEAN_MOTION_DDOT":0}]
